COMMENT,ORIGINATOR,NORAD_CAT_ID,OBJECT_NAME,OBJECT_TYPE,CLASSIFICATION_TYPE,INTLDES,EPOCH,EPOCH_MICROSECONDS,MEAN_MOTION,ECCENTRICITY,INCLINATION,RA_OF_ASC_NODE,ARG_OF_PERICENTER,MEAN_ANOMALY,EPHEMERIS_TYPE,ELEMENT_SET_NO,REV_AT_EPOCH,BSTAR,MEAN_MOTION_DOT,MEAN_MOTION_DDOT,FILE,TLE_LINE0,TLE_LINE1,TLE_LINE2,OBJECT_ID,OBJECT_NUMBER,SEMIMAJOR_AXIS,PERIOD,APOGEE,PERIGEE,DECAYED
"GENERATED VIA SPACETRACK.ORG API","18 SPCS","12345","COSMOS 1174 DEB","DEBRIS","U","80030T","1989-11-04 07:11:45","458880","14.44243849","0.0462277","66.0491","259.3027","80.7475","284.5958","0","999","93791","0.003132","0.00041753","0","34686","0 COSMOS 1174 DEB","1 12345U 80030  T 89308.29983170  .00041753 +00000-0 +31320-2 0  9994","2 12345 066.0491 259.3027 0462277 080.7475 284.5958 14.44243849937913","1980-030T","12345","7122.653","99.706","1073.782","415.254","1"
"GENERATED VIA SPACETRACK.ORG API","18 SPCS","12345","COSMOS 1174 DEB","DEBRIS","U","80030T","1989-11-04 00:32:55","891103","14.44215816","0.0462156","66.0552","260.0793","80.8371","284.6443","0","999","93787","0.0030757","0.0004093","0","34686","0 COSMOS 1174 DEB","1 12345U 80030  T 89308.02286911  .00040930 +00000-0 +30757-2 0  9993","2 12345 066.0552 260.0793 0462156 080.8371 284.6443 14.44215816937870","1980-030T","12345","7122.745","99.708","1073.792","415.428","1"
"GENERATED VIA SPACETRACK.ORG API","18 SPCS","12345","COSMOS 1174 DEB","DEBRIS","U","80030T","1989-11-03 01:16:47","819999","14.4411051","0.0463063","66.0454","262.7355","81.6456","283.6995","0","999","93773","0.0026306","0.00035061","0","131042","0 COSMOS 1174 DEB","1 12345U 80030  T 89307.05333125  .00035061 +00000-0 +26306-2 0  9999","2 12345 066.0454 262.7355 0463063 081.6456 283.6995 14.44110510937736","1980-030T","12345","7123.091","99.715","1074.800","415.112","1"
"GENERATED VIA SPACETRACK.ORG API","18 SPCS","12345","COSMOS 1174 DEB","DEBRIS","U","80030T","1989-11-02 00:20:51","498815","14.44031659","0.0463001","66.0417","265.5952","82.2852","283.0649","0","999","93758","0.0025725","0.00034182","0","34686","0 COSMOS 1174 DEB","1 12345U 80030  T 89306.01448494  .00034182 +00000-0 +25725-2 0  9997","2 12345 066.0417 265.5952 0463001 082.2852 283.0649 14.44031659937587","1980-030T","12345","7123.350","99.721","1075.027","415.404","1"
"GENERATED VIA SPACETRACK.ORG API","18 SPCS","12345","COSMOS 1174 DEB","DEBRIS","U","80030T","1989-11-01 01:04:36","347232","14.43952704","0.0463416","66.0516","268.284","82.7245","282.6848","0","999","93744","0.0023965","0.00031831","0","131042","0 COSMOS 1174 DEB","1 12345U 80030  T 89305.04486513  .00031831 +00000-0 +23965-2 0  9995","2 12345 066.0516 268.2840 0463416 082.7245 282.6848 14.43952704937447","1980-030T","12345","7123.610","99.726","1075.595","415.356","1"
"GENERATED VIA SPACETRACK.ORG API","18 SPCS","12345","COSMOS 1174 DEB","DEBRIS","U","80030T","1989-11-01 01:04:36","238367","14.43952703","0.0463416","66.0516","268.2841","82.7246","282.6848","0","999","93744","0.0023965","0.00031832","0","34686","0 COSMOS 1174 DEB","1 12345U 80030  T 89305.04486387  .00031832 +00000-0 +23965-2 0  9995","2 12345 066.0516 268.2841 0463416 082.7246 282.6848 14.43952703937448","1980-030T","12345","7123.610","99.726","1075.595","415.356","1"
"GENERATED VIA SPACETRACK.ORG API","18 SPCS","12345","COSMOS 1174 DEB","DEBRIS","U","80030T","1989-10-31 00:08:29","749632","14.43876399","0.0463503","66.0471","271.1453","83.3476","282.0253","0","999","93729","0.0022308","0.00029561","0","34686","0 COSMOS 1174 DEB","1 12345U 80030  T 89304.00589988  .00029561 +00000-0 +22308-2 0  9997","2 12345 066.0471 271.1453 0463503 083.3476 282.0253 14.43876399937292","1980-030T","12345","7123.861","99.732","1075.919","415.533","1"
"GENERATED VIA SPACETRACK.ORG API","18 SPCS","12345","COSMOS 1174 DEB","DEBRIS","U","80030T","1989-10-30 09:10:48","110591","14.4383079","0.0464171","66.0489","272.8657","83.784","281.5921","0","999","93720","0.0020681","0.0002747","0","34686","0 COSMOS 1174 DEB","1 12345U 80030  T 89303.38250128  .00027470 +00000-0 +20681-2 0  9997","2 12345 066.0489 272.8657 0464171 083.7840 281.5921 14.43830790937208","1980-030T","12345","7124.011","99.735","1076.552","415.200","1"
"GENERATED VIA SPACETRACK.ORG API","18 SPCS","12345","COSMOS 1174 DEB","DEBRIS","U","80030T","1989-10-30 07:31:03","382175","14.43826729","0.046416","66.049","273.0567","83.8215","281.5567","0","999","93719","0.0020641","0.00027411","0","34686","0 COSMOS 1174 DEB","1 12345U 80030  T 89303.31323359  .00027411 +00000-0 +20641-2 0  9998","2 12345 066.0490 273.0567 0464160 083.8215 281.5567 14.43826729937199","1980-030T","12345","7124.024","99.735","1076.558","415.221","1"
"GENERATED VIA SPACETRACK.ORG API","18 SPCS","12345","COSMOS 1174 DEB","DEBRIS","U","80030T","1989-10-30 00:52:04","192031","14.43810687","0.0464086","66.0485","273.8196","83.9735","281.4075","0","999","93715","0.0020505","0.00027203","0","131042","0 COSMOS 1174 DEB","1 12345U 80030  T 89303.03615963  .00027203 +00000-0 +20505-2 0  9990","2 12345 066.0485 273.8196 0464086 083.9735 281.4075 14.43810687937159","1980-030T","12345","7124.077","99.736","1076.561","415.324","1"
"GENERATED VIA SPACETRACK.ORG API","18 SPCS","12345","COSMOS 1174 DEB","DEBRIS","U","80030T","1989-10-29 08:14:34","790208","14.43783656","0.0464353","66.0522","275.7395","84.0677","281.3113","0","999","93705","0.0023166","0.00030773","0","34686","0 COSMOS 1174 DEB","1 12345U 80030  T 89302.34345822  .00030773 +00000-0 +23166-2 0  9999","2 12345 066.0522 275.7395 0464353 084.0677 281.3113 14.43783656937053","1980-030T","12345","7124.166","99.738","1076.844","415.218","1"
"GENERATED VIA SPACETRACK.ORG API","18 SPCS","12345","COSMOS 1174 DEB","DEBRIS","U","80030T","1989-10-28 23:55:49","305216","14.43762986","0.0464821","66.0532","276.6953","84.3278","281.0351","0","999","93700","0.0023158","0.00030831","0","34686","0 COSMOS 1174 DEB","1 12345U 80030  T 89301.99709844  .00030831 +00000-0 +23158-2 0  9993","2 12345 066.0532 276.6953 0464821 084.3278 281.0351 14.43762986937003","1980-030T","12345","7124.234","99.739","1077.248","414.950","1"
"GENERATED VIA SPACETRACK.ORG API","18 SPCS","12345","COSMOS 1174 DEB","DEBRIS","U","80030T","1989-10-28 08:58:03","103391","14.43731282","0.0464676","66.0519","278.4116","84.7227","280.6682","0","999","93691","0.0023884","0.00031741","0","34686","0 COSMOS 1174 DEB","1 12345U 80030  T 89301.37364703  .00031741 +00000-0 +23884-2 0  9993","2 12345 066.0519 278.4116 0464676 084.7227 280.6682 14.43731282936911","1980-030T","12345","7124.338","99.742","1077.254","415.153","1"
"GENERATED VIA SPACETRACK.ORG API","18 SPCS","12345","COSMOS 1174 DEB","DEBRIS","U","80030T","1989-10-28 00:39:16","774272","14.43709545","0.0464945","66.0514","279.365","84.9609","280.4255","0","999","93686","0.0023891","0.0003178","0","34686","0 COSMOS 1174 DEB","1 12345U 80030  T 89301.02727748  .00031780 +00000-0 +23891-2 0  9998","2 12345 066.0514 279.3650 0464945 084.9609 280.4255 14.43709545936869","1980-030T","12345","7124.410","99.743","1077.521","415.029","1"
"GENERATED VIA SPACETRACK.ORG API","18 SPCS","12345","COSMOS 1174 DEB","DEBRIS","U","80030T","1989-10-27 01:22:40","730303","14.43655146","0.0465245","66.0499","282.037","85.5013","279.8769","0","999","93672","0.0024697","0.00032858","0","131042","0 COSMOS 1174 DEB","1 12345U 80030  T 89300.05741586  .00032858 +00000-0 +24697-2 0  9998","2 12345 066.0499 282.0370 0465245 085.5013 279.8769 14.43655146936725","1980-030T","12345","7124.589","99.747","1077.922","414.986","1"
"GENERATED VIA SPACETRACK.ORG API","18 SPCS","12345","COSMOS 1174 DEB","DEBRIS","U","80030T","1989-10-27 01:22:40","619711","14.43655146","0.0465245","66.0499","282.037","85.5014","279.8769","0","999","93672","0.0024697","0.00032858","0","34686","0 COSMOS 1174 DEB","1 12345U 80030  T 89300.05741458  .00032858 +00000-0 +24697-2 0  9996","2 12345 066.0499 282.0370 0465245 085.5014 279.8769 14.43655146936726","1980-030T","12345","7124.589","99.747","1077.922","414.986","1"
"GENERATED VIA SPACETRACK.ORG API","18 SPCS","12345","COSMOS 1174 DEB","DEBRIS","U","80030T","1989-10-26 08:45:04","705056","14.43619243","0.0464964","66.0553","283.9449","85.8562","279.5494","0","999","93662","0.0025801","0.00034234","0","34686","0 COSMOS 1174 DEB","1 12345U 80030  T 89299.36463779  .00034234 +00000-0 +25801-2 0  9992","2 12345 066.0553 283.9449 0464964 085.8562 279.5494 14.43619243936621","1980-030T","12345","7124.707","99.749","1077.845","415.299","1"
"GENERATED VIA SPACETRACK.ORG API","18 SPCS","12345","COSMOS 1174 DEB","DEBRIS","U","80030T","1989-10-26 00:26:15","406368","14.43597633","0.0465788","66.0576","284.9019","86.126","279.2462","0","999","93657","0.0025896","0.00034513","0","34686","0 COSMOS 1174 DEB","1 12345U 80030  T 89299.01823387  .00034513 +00000-0 +25896-2 0  9993","2 12345 066.0576 284.9019 0465788 086.1260 279.2462 14.43597633936578","1980-030T","12345","7124.778","99.751","1078.507","414.780","1"
"GENERATED VIA SPACETRACK.ORG API","18 SPCS","12345","COSMOS 1174 DEB","DEBRIS","U","80030T","1989-10-25 09:28:22","653695","14.43572925","0.0465533","66.0549","286.6183","86.4446","278.9586","0","999","93648","0.0028326","0.00037672","0","34686","0 COSMOS 1174 DEB","1 12345U 80030  T 89298.39470664  .00037672 +00000-0 +28326-2 0  9999","2 12345 066.0549 286.6183 0465533 086.4446 278.9586 14.43572925936486","1980-030T","12345","7124.859","99.752","1078.410","415.039","1"
"GENERATED VIA SPACETRACK.ORG API","18 SPCS","12345","COSMOS 1174 DEB","DEBRIS","U","80030T","1989-10-25 01:09:31","943231","14.43549988","0.0466679","66.0531","287.5698","86.8135","278.5364","0","999","93643","0.0028576","0.00038252","0","131042","0 COSMOS 1174 DEB","1 12345U 80030  T 89298.04828638  .00038252 +00000-0 +28576-2 0  9991","2 12345 066.0531 287.5698 0466679 086.8135 278.5364 14.43549988936437","1980-030T","12345","7124.935","99.754","1079.306","414.294","1"
